STARLINK-34662          
1 64799U 25150K   25251.73341900  .00054541  00000+0  12394-2 0  9999
2 64799  70.0031 250.3715 0002926 275.6893  84.3955 15.42728179  8839
STARLINK-34660          
1 64800U 25150L   25251.71703770  .00060459  00000+0  13728-2 0  9994
2 64800  70.0029 250.3125 0002839 262.6173  97.4687 15.42721046  8837
STARLINK-34604          
1 64801U 25150M   25251.70892458  .00042588  00000+0  96987-3 0  9998
2 64801  70.0033 250.2834 0002796 268.3923  91.6939 15.42733300  8839
STARLINK-34658          
1 64802U 25150N   25251.43353441  .00042385  00000+0  96593-3 0  9991
2 64802  70.0020 250.9245 0002749 279.7809  80.3062 15.42713779  8791
STARLINK-34620          
1 64803U 25150P   25251.42542668  .00039071  00000+0  89095-3 0  9999
2 64803  70.0015 250.8962 0002782 271.5719  88.5144 15.42717138  8792
STARLINK-34633          
1 64804U 25150Q   25251.74151871  .00054288  00000+0  12335-2 0  9996
2 64804  70.0033 249.9913 0002756 278.9199  81.1671 15.42735180  8849
STARLINK-34624          
1 64805U 25150R   25251.97026639  .00046172  00000+0  10503-2 0  9993
2 64805  70.0026 249.5892 0002654 272.1851  87.9027 15.42746303  8873
STARLINK-34664          
1 64806U 25150S   25251.70099847  .00048625  00000+0  11062-2 0  9992
2 64806  70.0031 250.2539 0002484 270.0051  90.0847 15.42728124  8839
STARLINK-34663          
1 64807U 25150T   25251.71901055  .00056681  00000+0  12875-2 0  9991
2 64807  70.0030 250.3189 0002850 270.9711  89.1145 15.42729537  8839
STARLINK-34696          
1 64808U 25150U   25251.43966325  .00042148  00000+0  96079-3 0  9994
2 64808  70.0023 250.9465 0002697 277.0660  83.0215 15.42707545  8796
STARLINK-34675          
1 64809U 25150V   25251.40309721  .00031151  00000+0  71181-3 0  9992
2 64809  70.0008 251.2246 0003227 273.3476  86.7336 15.42713426  8783
STARLINK-34608          
1 64810U 25150W   25251.72316062  .00046368  00000+0  10557-2 0  9990
2 64810  70.0031 250.3337 0002378 277.8078  82.2834 15.42717482  8831
STARLINK-34669          
1 64811U 25150X   25251.43552064  .00059022  00000+0  13411-2 0  9996
2 64811  70.0013 250.9304 0003181 261.5920  98.4901 15.42706530  8792
STARLINK-34644          
1 64812U 25150Y   25251.43784040  .00019070  00000+0  31269-3 0  9999
2 64812  70.0005 249.7006 0001885 274.9760  85.1211 15.52455522  8822
STARLINK-34685          
1 64813U 25150Z   25251.42344459  .00049929  00000+0  11358-2 0  9997
2 64813  70.0013 250.8889 0002798 269.8828  90.2034 15.42722771  8794
STARLINK-34668          
1 64814U 25150AA  25251.73954598  .00065609  00000+0  14882-2 0  9991
2 64814  70.0035 249.9830 0002636 269.0926  90.9954 15.42727318  8842
STARLINK-34667          
1 64815U 25150AB  25251.41930586  .00021307  00000+0  48849-3 0  9996
2 64815  70.0014 250.8735 0002818 266.1085  93.9775 15.42718937  8796
STARLINK-34723          
1 64842U 25152A   25251.91668981 -.00486767  00000+0 -26973-1 0  9999
2 64842  97.6065 106.2284 0002110  86.0373 127.4768 15.16159311  5938
STARLINK-34725          
1 64843U 25152B   25251.85093836  .00033414  00000+0  85379-3 0  9996
2 64843  97.6036 106.2262 0003034 102.6752 257.4833 15.39391255  8058
STARLINK-34709          
1 64844U 25152C   25251.91668981 -.01966568  00000+0 -10982+0 0  9995
2 64844  97.6059 106.2588 0001860  98.9693 184.2424 15.17115959  5939
STARLINK-34706          
1 64845U 25152D   25251.91668981 -.01964768  00000+0 -12210+0 0  9992
2 64845  97.6064 106.2450 0002099  99.3874 150.9184 15.13349383  5934
STARLINK-34736          
1 64846U 25152E   25251.91668981  .00079253  00000+0  25090-2 0  9999
2 64846  97.6018 106.2814 0001919 108.1934 228.4987 15.32441430  5933
STARLINK-34746          
1 64847U 25152F   25251.91668981 -.01953029  00000+0 -10771+0 0  9992
2 64847  97.6053 106.2973 0001679  88.6327 282.3236 15.17525039  5937
STARLINK-34748          
1 64848U 25152G   25251.91668981 -.01959865  00000+0 -79639-1 0  9997
2 64848  97.6051 106.2730 0001811 100.7028 217.5437 15.27828643  5884
STARLINK-34756          
1 64849U 25152H   25251.91668981  .00083500  00000+0  21229-2 0  9992
2 64849  97.6016 107.0990 0001954 106.5332 313.4789 15.39299296  5956
STARLINK-34757          
1 64850U 25152J   25251.91668981 -.01972441  00000+0 -85691-1 0  9990
2 64850  97.6043 106.2285 0002168  93.2824 121.6591 15.25647445  5714
STARLINK-34722          
1 64851U 25152K   25251.91668981 -.01978565  00000+0 -11113+0 0  9990
2 64851  97.6063 106.2477 0002082 102.6821 155.0357 15.16935100  5930
STARLINK-34564          
1 64852U 25152L   25251.91668981 -.01938291  00000+0 -10801+0 0  9996
2 64852  97.6046 106.2890 0001866  94.2166 258.0681 15.17138138  5883
STARLINK-34676          
1 64853U 25152M   25251.91668981 -.01955871  00000+0 -10030+0 0  9994
2 64853  97.6057 106.2350 0002520 103.4763 125.4237 15.20030650  5889
STARLINK-34682          
1 64854U 25152N   25251.59526688  .00020321  00000+0  52172-3 0  9993
2 64854  97.6022 105.9505 0001808  93.3784 266.7668 15.39350952  8013
STARLINK-34631          
1 64855U 25152P   25251.91668981 -.01955337  00000+0 -10682+0 0  9996
2 64855  97.6048 106.2739 0001864  94.9528 224.0908 15.17857499  5880
STARLINK-34578          
1 64856U 25152Q   25251.87154099  .00023842  00000+0  61124-3 0  9997
2 64856  97.6031 106.3550 0002201  85.2086 274.9411 15.39361570  8063
STARLINK-34683          
1 64857U 25152R   25251.85962277  .00028416  00000+0  72774-3 0  9996
2 64857  97.6035 106.2139 0002060  93.2442 266.9039 15.39357642  8059
STARLINK-34654          
1 64858U 25152S   25251.91668981 -.01746802  00000+0 -66797-1 0  9994
2 64858  97.6024 106.3245 0001940 121.4609 312.0679 15.29959494  5885
STARLINK-34575          
1 64859U 25152T   25251.91668981 -.02155359  00000+0 -84340-1 0  9991
2 64859  97.6037 106.3022 0001649  75.0216 290.1110 15.29385281  5880
STARLINK-34570          
1 64860U 25152U   25251.86756733  .00035894  00000+0  91775-3 0  9999
2 64860  97.6031 106.3617 0001331  88.4617 271.6781 15.39358982  8067
STARLINK-34651          
1 64861U 25152V   25251.56162082  .00074349  00000+0  13528-2 0  9992
2 64861  97.6002 106.4654 0001695  78.7484 281.3957 15.49252729  8049
STARLINK-34684          
1 64862U 25152W   25251.87370928  .00033852  00000+0  86566-3 0  9994
2 64862  97.6025 106.3513 0001723  73.4622 286.6812 15.39366848  8063
STARLINK-34690          
1 64863U 25152X   25251.55735178  .00042544  00000+0  10863-2 0  9996
2 64863  97.6022 106.0035 0002068  78.1031 282.0446 15.39362482  8014
STARLINK-34628          
1 64864U 25152Y   25251.91668981 -.02839032  00000+0 -15321+0 0  9995
2 64864  97.6032 106.3410 0001642  83.4883 357.4389 15.19130992  5889
STARLINK-34544          
1 64865U 25152Z   25251.91668981 -.01972666  00000+0 -78756-1 0  9999
2 64865  97.6044 106.2665 0001777  85.7689 216.1743 15.28426606  5719
STARLINK-34647          
1 64904U 25157A   25251.89232615  .00036224  00000+0  91029-3 0  9994
2 64904  53.1599 120.4831 0000612 101.1978 258.9096 15.39652854  8142
STARLINK-34273          
1 64905U 25157B   25251.92473550  .00034338  00000+0  86369-3 0  9999
2 64905  53.1594 119.9706 0000837  82.4255 277.6845 15.39650938  8163
STARLINK-34713          
1 64906U 25157C   25251.81348324  .00037507  00000+0  94206-3 0  9998
2 64906  53.1597 120.7023 0000808  66.3202 293.7888 15.39651794  8088
STARLINK-34712          
1 64907U 25157D   25251.93402307  .00027512  00000+0  69464-3 0  9997
2 64907  53.1581 120.0306 0000667  56.8702 303.2367 15.39648595  8153
STARLINK-34702          
1 64908U 25157E   25251.91080524  .00041559  00000+0  10422-2 0  9995
2 64908  53.1599 119.8826 0000944  81.6882 278.4230 15.39652819  8155
STARLINK-34687          
1 64909U 25157F   25251.90151997  .00038747  00000+0  97268-3 0  9997
2 64909  53.1604 119.8219 0000796  91.3117 268.7980 15.39653680  8109
STARLINK-34642          
1 64910U 25157G   25251.89697532  .00034058  00000+0  85686-3 0  9999
2 64910  53.1601 120.5131 0001101  55.6571 304.4538 15.39647487  8147
STARLINK-34718          
1 64911U 25157H   25251.95259039  .00022006  00000+0  55850-3 0  9993
2 64911  53.1590 120.1473 0000498 359.2927   0.8077 15.39621855  8153
STARLINK-34711          
1 64912U 25157J   25251.94795380  .00035558  00000+0  89369-3 0  9995
2 64912  53.1603 120.1175 0000760  67.8245 292.2841 15.39657220  8156
STARLINK-34659          
1 64913U 25157K   25251.93863846  .00055975  00000+0  14012-2 0  9995
2 64913  53.1588 120.0600 0001620  55.3255 304.7902 15.39574013  8100
STARLINK-34571          
1 64914U 25157L   25251.92939296  .00042573  00000+0  10679-2 0  9993
2 64914  53.1586 119.9985 0000878  86.2207 273.8898 15.39633225  8107
STARLINK-34636          
1 64915U 25157M   25251.92009570  .00037539  00000+0  94281-3 0  9995
2 64915  53.1596 119.9396 0000920  85.2703 274.8407 15.39653312  8154
STARLINK-34695          
1 64916U 25157N   25251.91544915  .00037192  00000+0  93414-3 0  9994
2 64916  53.1598 119.9103 0000657  68.2864 291.8211 15.39656381  8150
STARLINK-34653          
1 64917U 25157P   25251.90617707  .00043355  00000+0  10873-2 0  9999
2 64917  53.1602 119.8514 0001047 106.2414 253.8706 15.39630921  8104
STARLINK-34611          
1 64918U 25157Q   25251.89267376  .00036703  00000+0  92255-3 0  9995
2 64918  53.1604 120.4834 0000885  73.4827 286.6275 15.39639768  8149
STARLINK-34599          
1 64919U 25157R   25251.91114445  .00036933  00000+0  92800-3 0  9998
2 64919  53.1601 119.8709 0000524  77.9687 282.1376 15.39647448  8151
STARLINK-34069          
1 64920U 25157S   25251.91668981  .00029010  00000+0  73260-3 0  9996
2 64920  53.1593 120.3201 0001009  70.3043  88.7681 15.39614729  5780
STARLINK-34699          
1 64921U 25157T   25251.91668981  .00019590  00000+0  49871-3 0  9990
2 64921  53.1591 120.2686 0000851  44.8945 139.9859 15.39604530  6007
